[{"OBJECT_NAME":"ONEWEB-0616","OBJECT_ID":"2023-004T","EPOCH":"2026-02-19T21:32:31.431264","MEAN_MOTION":13.17648398,"ECCENTRICITY":0.0001106,"INCLINATION":87.9128,"RA_OF_ASC_NODE":29.1601,"ARG_OF_PERICENTER":101.4514,"MEAN_ANOMALY":258.6742,"EPHEMERIS_TYPE":0,"CLASSIFICATION_TYPE":"U","NORAD_CAT_ID":55157,"ELEMENT_SET_NO":999,"REV_AT_EPOCH":15225,"BSTAR":0.00010124,"MEAN_MOTION_DOT":5.2e-7,"MEAN_MOTION_DDOT":0},{"OBJECT_NAME":"ONEWEB-0617","OBJECT_ID":"2023-004U","EPOCH":"2026-02-20T00:39:57.581856","MEAN_MOTION":13.11419332,"ECCENTRICITY":0.00022047,"INCLINATION":87.8839,"RA_OF_ASC_NODE":44.3659,"ARG_OF_PERICENTER":83.0255,"MEAN_ANOMALY":277.1124,"EPHEMERIS_TYPE":0,"CLASSIFICATION_TYPE":"U","NORAD_CAT_ID":55158,"ELEMENT_SET_NO":999,"REV_AT_EPOCH":15050,"BSTAR":-8.0144953e-5,"MEAN_MOTION_DOT":-1.6e-7,"MEAN_MOTION_DDOT":0},{"OBJECT_NAME":"ONEWEB-0618","OBJECT_ID":"2023-004V","EPOCH":"2026-02-19T21:21:54.853344","MEAN_MOTION":15.11711929,"ECCENTRICITY":0.0013195,"INCLINATION":86.9043,"RA_OF_ASC_NODE":225.1985,"ARG_OF_PERICENTER":19.1698,"MEAN_ANOMALY":341.0035,"EPHEMERIS_TYPE":0,"CLASSIFICATION_TYPE":"U","NORAD_CAT_ID":55159,"ELEMENT_SET_NO":999,"REV_AT_EPOCH":16453,"BSTAR":0.00032027,"MEAN_MOTION_DOT":5.495e-5,"MEAN_MOTION_DDOT":0},{"OBJECT_NAME":"ONEWEB-0619","OBJECT_ID":"2023-004W","EPOCH":"2026-02-20T00:08:02.569920","MEAN_MOTION":13.17647672,"ECCENTRICITY":0.00016367,"INCLINATION":87.9131,"RA_OF_ASC_NODE":29.1119,"ARG_OF_PERICENTER":70.7303,"MEAN_ANOMALY":289.4005,"EPHEMERIS_TYPE":0,"CLASSIFICATION_TYPE":"U","NORAD_CAT_ID":55160,"ELEMENT_SET_NO":999,"REV_AT_EPOCH":15216,"BSTAR":-0.00012476016,"MEAN_MOTION_DOT":-3.6e-7,"MEAN_MOTION_DDOT":0},{"OBJECT_NAME":"ONEWEB-0620","OBJECT_ID":"2023-004X","EPOCH":"2026-02-20T00:32:39.081984","MEAN_MOTION":13.11419639,"ECCENTRICITY":0.00021491,"INCLINATION":87.8828,"RA_OF_ASC_NODE":44.3846,"ARG_OF_PERICENTER":88.2233,"MEAN_ANOMALY":271.9141,"EPHEMERIS_TYPE":0,"CLASSIFICATION_TYPE":"U","NORAD_CAT_ID":55161,"ELEMENT_SET_NO":999,"REV_AT_EPOCH":15047,"BSTAR":-0.00020671685,"MEAN_MOTION_DOT":-6.1e-7,"MEAN_MOTION_DDOT":0},{"OBJECT_NAME":"ONEWEB-0621","OBJECT_ID":"2023-004Y","EPOCH":"2026-02-20T01:11:44.063520","MEAN_MOTION":13.11414531,"ECCENTRICITY":0.00018833,"INCLINATION":87.8841,"RA_OF_ASC_NODE":44.3564,"ARG_OF_PERICENTER":78.3634,"MEAN_ANOMALY":281.7705,"EPHEMERIS_TYPE":0,"CLASSIFICATION_TYPE":"U","NORAD_CAT_ID":55162,"ELEMENT_SET_NO":999,"REV_AT_EPOCH":15045,"BSTAR":0.0011709541,"MEAN_MOTION_DOT":4.28e-6,"MEAN_MOTION_DDOT":0},{"OBJECT_NAME":"ONEWEB-0622","OBJECT_ID":"2023-004Z","EPOCH":"2026-02-20T01:19:03.067968","MEAN_MOTION":13.11413643,"ECCENTRICITY":0.00025028,"INCLINATION":87.8833,"RA_OF_ASC_NODE":44.3592,"ARG_OF_PERICENTER":76.4122,"MEAN_ANOMALY":283.7284,"EPHEMERIS_TYPE":0,"CLASSIFICATION_TYPE":"U","NORAD_CAT_ID":55163,"ELEMENT_SET_NO":999,"REV_AT_EPOCH":15044,"BSTAR":0.00068323202,"MEAN_MOTION_DOT":2.55e-6,"MEAN_MOTION_DDOT":0},{"OBJECT_NAME":"ONEWEB-0623","OBJECT_ID":"2023-004AA","EPOCH":"2026-02-20T00:00:45.321984","MEAN_MOTION":13.17647716,"ECCENTRICITY":0.00021752,"INCLINATION":87.9118,"RA_OF_ASC_NODE":29.1563,"ARG_OF_PERICENTER":65.8273,"MEAN_ANOMALY":294.3086,"EPHEMERIS_TYPE":0,"CLASSIFICATION_TYPE":"U","NORAD_CAT_ID":55164,"ELEMENT_SET_NO":999,"REV_AT_EPOCH":15215,"BSTAR":-2.2968099e-5,"MEAN_MOTION_DOT":4.0e-8,"MEAN_MOTION_DDOT":0},{"OBJECT_NAME":"ONEWEB-0624","OBJECT_ID":"2023-004AB","EPOCH":"2026-02-19T21:48:58.737888","MEAN_MOTION":13.12922493,"ECCENTRICITY":0.0001977,"INCLINATION":87.8974,"RA_OF_ASC_NODE":13.8824,"ARG_OF_PERICENTER":74.1535,"MEAN_ANOMALY":285.9812,"EPHEMERIS_TYPE":0,"CLASSIFICATION_TYPE":"U","NORAD_CAT_ID":55165,"ELEMENT_SET_NO":999,"REV_AT_EPOCH":15268,"BSTAR":-0.00057431,"MEAN_MOTION_DOT":-1.95e-6,"MEAN_MOTION_DDOT":0},{"OBJECT_NAME":"ONEWEB-0625","OBJECT_ID":"2023-004AC","EPOCH":"2026-02-19T23:46:10.847712","MEAN_MOTION":13.17647779,"ECCENTRICITY":0.00017035,"INCLINATION":87.9119,"RA_OF_ASC_NODE":29.1519,"ARG_OF_PERICENTER":85.4403,"MEAN_ANOMALY":274.6923,"EPHEMERIS_TYPE":0,"CLASSIFICATION_TYPE":"U","NORAD_CAT_ID":55166,"ELEMENT_SET_NO":999,"REV_AT_EPOCH":15214,"BSTAR":-6.893282e-5,"MEAN_MOTION_DOT":-1.4e-7,"MEAN_MOTION_DDOT":0},{"OBJECT_NAME":"ONEWEB-0626","OBJECT_ID":"2023-004AD","EPOCH":"2026-02-19T23:31:35.594976","MEAN_MOTION":13.17646973,"ECCENTRICITY":0.0002194,"INCLINATION":87.9113,"RA_OF_ASC_NODE":29.1551,"ARG_OF_PERICENTER":94.4822,"MEAN_ANOMALY":265.656,"EPHEMERIS_TYPE":0,"CLASSIFICATION_TYPE":"U","NORAD_CAT_ID":55167,"ELEMENT_SET_NO":999,"REV_AT_EPOCH":15214,"BSTAR":-0.00011105,"MEAN_MOTION_DOT":-3.0e-7,"MEAN_MOTION_DDOT":0},{"OBJECT_NAME":"ONEWEB-0627","OBJECT_ID":"2023-004AE","EPOCH":"2026-02-19T21:25:15.308256","MEAN_MOTION":13.17643029,"ECCENTRICITY":0.0002153,"INCLINATION":87.912,"RA_OF_ASC_NODE":29.1718,"ARG_OF_PERICENTER":71.1411,"MEAN_ANOMALY":288.9954,"EPHEMERIS_TYPE":0,"CLASSIFICATION_TYPE":"U","NORAD_CAT_ID":55168,"ELEMENT_SET_NO":999,"REV_AT_EPOCH":15213,"BSTAR":0.0028699,"MEAN_MOTION_DOT":1.127e-5,"MEAN_MOTION_DDOT":0},{"OBJECT_NAME":"ONEWEB-0628","OBJECT_ID":"2023-004AF","EPOCH":"2026-02-19T20:20:07.723104","MEAN_MOTION":13.12444283,"ECCENTRICITY":0.0002082,"INCLINATION":87.8979,"RA_OF_ASC_NODE":13.9398,"ARG_OF_PERICENTER":59.1152,"MEAN_ANOMALY":301.0181,"EPHEMERIS_TYPE":0,"CLASSIFICATION_TYPE":"U","NORAD_CAT_ID":55169,"ELEMENT_SET_NO":999,"REV_AT_EPOCH":15264,"BSTAR":-0.0010737,"MEAN_MOTION_DOT":-3.74e-6,"MEAN_MOTION_DDOT":0},{"OBJECT_NAME":"ONEWEB-0629","OBJECT_ID":"2023-004AG","EPOCH":"2026-02-19T20:49:59.486304","MEAN_MOTION":13.17649785,"ECCENTRICITY":0.0001677,"INCLINATION":87.9118,"RA_OF_ASC_NODE":29.1743,"ARG_OF_PERICENTER":72.4386,"MEAN_ANOMALY":287.6929,"EPHEMERIS_TYPE":0,"CLASSIFICATION_TYPE":"U","NORAD_CAT_ID":55170,"ELEMENT_SET_NO":999,"REV_AT_EPOCH":15213,"BSTAR":2.6955e-5,"MEAN_MOTION_DOT":2.3e-7,"MEAN_MOTION_DDOT":0},{"OBJECT_NAME":"ONEWEB-0631","OBJECT_ID":"2023-004AH","EPOCH":"2026-02-19T20:55:37.242912","MEAN_MOTION":13.18685384,"ECCENTRICITY":0.0002389,"INCLINATION":87.9239,"RA_OF_ASC_NODE":358.7259,"ARG_OF_PERICENTER":85.278,"MEAN_ANOMALY":274.8625,"EPHEMERIS_TYPE":0,"CLASSIFICATION_TYPE":"U","NORAD_CAT_ID":55171,"ELEMENT_SET_NO":999,"REV_AT_EPOCH":15421,"BSTAR":0.00013012,"MEAN_MOTION_DOT":6.4e-7,"MEAN_MOTION_DDOT":0},{"OBJECT_NAME":"ONEWEB-0709","OBJECT_ID":"2023-004AJ","EPOCH":"2026-02-20T00:17:59.787456","MEAN_MOTION":13.11418629,"ECCENTRICITY":0.00024024,"INCLINATION":87.8831,"RA_OF_ASC_NODE":44.3901,"ARG_OF_PERICENTER":104.7243,"MEAN_ANOMALY":255.4151,"EPHEMERIS_TYPE":0,"CLASSIFICATION_TYPE":"U","NORAD_CAT_ID":55172,"ELEMENT_SET_NO":999,"REV_AT_EPOCH":15051,"BSTAR":-0.0011351413,"MEAN_MOTION_DOT":-3.9e-6,"MEAN_MOTION_DDOT":0},{"OBJECT_NAME":"ONEWEB-0710","OBJECT_ID":"2023-004AK","EPOCH":"2026-02-19T21:10:38.858016","MEAN_MOTION":13.17649158,"ECCENTRICITY":0.0002039,"INCLINATION":87.9117,"RA_OF_ASC_NODE":29.1665,"ARG_OF_PERICENTER":78.6886,"MEAN_ANOMALY":281.4474,"EPHEMERIS_TYPE":0,"CLASSIFICATION_TYPE":"U","NORAD_CAT_ID":55173,"ELEMENT_SET_NO":999,"REV_AT_EPOCH":15213,"BSTAR":-3.0745e-5,"MEAN_MOTION_DOT":1.0e-8,"MEAN_MOTION_DDOT":0}]
