ONEWEB-0616             
1 55157U 23004T   26050.89758601  .00000052  00000+0  10124-3 0  9996
2 55157  87.9128  29.1601 0001106 101.4514 258.6742 13.17648398152252
ONEWEB-0617             
1 55158U 23004U   26051.02774979 -.00000016  00000+0 -80145-4 0  9992
2 55158  87.8839  44.3659 0002204  83.0255 277.1124 13.11419332150504
ONEWEB-0618             
1 55159U 23004V   26050.89021821  .00005495  00000+0  32027-3 0  9997
2 55159  86.9043 225.1985 0013195  19.1698 341.0035 15.11711929164534
ONEWEB-0619             
1 55160U 23004W   26051.00558530 -.00000036  00000+0 -12476-3 0  9999
2 55160  87.9131  29.1119 0001636  70.7303 289.4005 13.17647672152164
ONEWEB-0620             
1 55161U 23004X   26051.02267456 -.00000061  00000+0 -20672-3 0  9991
2 55161  87.8828  44.3846 0002149  88.2233 271.9141 13.11419639150472
ONEWEB-0621             
1 55162U 23004Y   26051.04981555  .00000428  00000+0  11710-2 0  9994
2 55162  87.8841  44.3564 0001883  78.3634 281.7705 13.11414531150453
ONEWEB-0622             
1 55163U 23004Z   26051.05489662  .00000255  00000+0  68323-3 0  9999
2 55163  87.8833  44.3592 0002502  76.4122 283.7284 13.11413643150442
ONEWEB-0623             
1 55164U 23004AA  26051.00052456  .00000004  00000+0 -22968-4 0  9991
2 55164  87.9118  29.1563 0002175  65.8273 294.3086 13.17647716152158
ONEWEB-0624             
1 55165U 23004AB  26050.90901317 -.00000195  00000+0 -57431-3 0  9993
2 55165  87.8974  13.8824 0001977  74.1535 285.9812 13.12922493152685
ONEWEB-0625             
1 55166U 23004AC  26050.99040333 -.00000014  00000+0 -68933-4 0  9995
2 55166  87.9119  29.1519 0001703  85.4403 274.6923 13.17647779152140
ONEWEB-0626             
1 55167U 23004AD  26050.98027309 -.00000030  00000+0 -11105-3 0  9999
2 55167  87.9113  29.1551 0002194  94.4822 265.6560 13.17646973152143
ONEWEB-0627             
1 55168U 23004AE  26050.89253829  .00001127  00000+0  28699-2 0  9999
2 55168  87.9120  29.1718 0002153  71.1411 288.9954 13.17643029152131
ONEWEB-0628             
1 55169U 23004AF  26050.84731161 -.00000374  00000+0 -10737-2 0  9994
2 55169  87.8979  13.9398 0002082  59.1152 301.0181 13.12444283152648
ONEWEB-0629             
1 55170U 23004AG  26050.86804961  .00000023  00000+0  26955-4 0  9997
2 55170  87.9118  29.1743 0001677  72.4386 287.6929 13.17649785152137
ONEWEB-0631             
1 55171U 23004AH  26050.87195883  .00000064  00000+0  13012-3 0  9999
2 55171  87.9239 358.7259 0002389  85.2780 274.8625 13.18685384154214
ONEWEB-0709             
1 55172U 23004AJ  26051.01249754 -.00000390  00000+0 -11351-2 0  9991
2 55172  87.8831  44.3901 0002402 104.7243 255.4151 13.11418629150518
ONEWEB-0710             
1 55173U 23004AK  26050.88239419  .00000001  00000+0 -30745-4 0  9991
2 55173  87.9117  29.1665 0002039  78.6886 281.4474 13.17649158152139
